{
    "links": {
        "self": "http://www.neowsapp.com/rest/v1/neo/3893771?api_key=iIulBulltgU6a56xZRHN4H3l9WmuAYTsLGpBGhQ2"
    },
    "id": "3893771",
    "neo_reference_id": "3893771",
    "name": "(2019 XC)",
    "designation": "2019 XC",
    "nasa_jpl_url": "http://ssd.jpl.nasa.gov/sbdb.cgi?sstr=3893771",
    "absolute_magnitude_h": 24.8,
    "estimated_diameter": {
        "kilometers": {
            "estimated_diameter_min": 0.0291443905,
            "estimated_diameter_max": 0.0651688382
        },
        "meters": {
            "estimated_diameter_min": 29.1443904535,
            "estimated_diameter_max": 65.1688382168
        },
        "miles": {
            "estimated_diameter_min": 0.018109479,
            "estimated_diameter_max": 0.0404940262
        },
        "feet": {
            "estimated_diameter_min": 95.6180819754,
            "estimated_diameter_max": 213.8085311752
        }
    },
    "is_potentially_hazardous_asteroid": false,
    "close_approach_data": [
        {
            "close_approach_date": "2019-12-02",
            "close_approach_date_full": "2019-Dec-02 20:33",
            "epoch_date_close_approach": 1575318780000,
            "relative_velocity": {
                "kilometers_per_second": "13.1438746137",
                "kilometers_per_hour": "47317.9486094582",
                "miles_per_hour": "29401.5331234714"
            },
            "miss_distance": {
                "astronomical": "0.1338525043",
                "lunar": "52.0686241727",
                "kilometers": "20024049.537445841",
                "miles": "12442367.4223249658"
            },
            "orbiting_body": "Earth"
        },
        {
            "close_approach_date": "2021-11-21",
            "close_approach_date_full": "2021-Nov-21 02:54",
            "epoch_date_close_approach": 1637463240000,
            "relative_velocity": {
                "kilometers_per_second": "20.1591097751",
                "kilometers_per_hour": "72572.7951904316",
                "miles_per_hour": "45093.9126559657"
            },
            "miss_distance": {
                "astronomical": "0.4294103376",
                "lunar": "167.0406213264",
                "kilometers": "64238871.860940912",
                "miles": "39916184.0363401056"
            },
            "orbiting_body": "Earth"
        }
    ],
    "orbital_data": {
        "orbit_id": "2",
        "orbit_determination_date": "2019-12-03 08:44:34",
        "first_observation_date": "2019-11-26",
        "last_observation_date": "2019-12-03",
        "data_arc_in_days": 7,
        "observations_used": 16,
        "orbit_uncertainty": "8",
        "minimum_orbit_intersection": ".12991",
        "jupiter_tisserand_invariant": "4.304",
        "epoch_osculation": "2458819.5",
        "eccentricity": ".3224229151812685",
        "semi_major_axis": "1.550461665799673",
        "inclination": "23.4192990768064",
        "ascending_node_longitude": "63.45489985861614",
        "orbital_period": "705.1637464207188",
        "perihelion_distance": "1.050557295635737",
        "perihelion_argument": "44.2601581826841",
        "aphelion_distance": "2.05036603596361",
        "perihelion_time": "2458858.619259460452",
        "mean_anomaly": "340.0288465235981",
        "mean_motion": ".5105197223017968",
        "equinox": "J2000",
        "orbit_class": {
            "orbit_class_type": "AMO",
            "orbit_class_description": "Near-Earth asteroid orbits similar to that of 1221 Amor",
            "orbit_class_range": "1.017 AU < q (perihelion) < 1.3 AU"
        }
    },
    "is_sentry_object": false
}